NORAD_CAT_ID,OBJECT_NAME,OBJECT_TYPE,EPOCH,MEAN_MOTION,ECCENTRICITY,INCLINATION,RA_OF_ASC_NODE,ARG_OF_PERICENTER,MEAN_ANOMALY,BSTAR,MEAN_MOTION_DOT,MEAN_MOTION_DDOT,TLE_LINE0,TLE_LINE1,TLE_LINE2,SEMIMAJOR_AXIS,PERIOD,APOGEE,PERIGEE,DECAYED
52869.0,STARLINK-4266,PAYLOAD,2023-01-25 04:18:58,15.08840068,0.000137,53.2157,89.5704,100.0092,260.1055,0.00028859,4.308e-05,0.0,0 STARLINK-4266,1 52869U 22062AR  23025.17983901  .00004308  00000-0  28859-3 0  9992,2 52869  53.2157  89.5704 0001370 100.0092 260.1055 15.08840068 34524,6917.88,95.438,540.693,538.797,0.0
52869.0,STARLINK-4266,PAYLOAD,2023-01-25 13:51:16,15.08851072,0.0001271,53.2178,87.7849,99.0261,261.0875,0.00049164,7.548e-05,0.0,0 STARLINK-4266,1 52869U 22062AR  23025.57727611  .00007548  00000-0  49164-3 0  9991,2 52869  53.2178  87.7849 0001271  99.0261 261.0875 15.08851072 34091,6917.847,95.437,540.591,538.832,0.0
52869.0,STARLINK-4266,PAYLOAD,2023-01-26 07:20:31,15.08841546,0.0001176,53.2164,84.5148,104.7441,255.3681,0.00064347,9.968e-05,0.0,0 STARLINK-4266,1 52869U 22062AR  23026.30592039  .00009968  00000-0  64347-3 0  9995,2 52869  53.2164  84.5148 0001176 104.7441 255.3681 15.08841546 34693,6917.876,95.437,540.554,538.927,0.0
52869.0,STARLINK-4266,PAYLOAD,2023-01-26 10:31:17,15.08848007,0.0001247,53.2169,83.9209,97.1479,262.9655,0.00088596,0.00013843,0.0,0 STARLINK-4266,1 52869U 22062AR  23026.43839995  .00013843  00000-0  88596-3 0  9993,2 52869  53.2169  83.9209 0001247  97.1479 262.9655 15.08848007 34227,6917.856,95.437,540.5840000000001,538.8580000000001,0.0
52869.0,STARLINK-4266,PAYLOAD,2023-01-27 04:00:32,15.08844876,0.0001382,53.2177,80.6504,101.5772,258.5376,0.00026234,3.89e-05,0.0,0 STARLINK-4266,1 52869U 22062AR  23027.16703950  .00003890  00000-0  26234-3 0  9997,2 52869  53.2177  80.6504 0001382 101.5772 258.5376 15.08844876 34821,6917.865,95.437,540.687,538.774,0.0
52869.0,STARLINK-4266,PAYLOAD,2023-01-27 08:46:41,15.0884854,0.0001425,53.218,79.7582,105.9147,254.2002,0.00026547,3.94e-05,0.0,0 STARLINK-4266,1 52869U 22062AR  23027.36575730  .00003940  00000-0  26547-3 0  9995,2 52869  53.2180  79.7582 0001425 105.9147 254.2002 15.08848540 34362,6917.854,95.437,540.705,538.7330000000001,0.0
52869.0,STARLINK-4266,PAYLOAD,2023-01-27 19:54:23,15.08848407,0.0001328,53.2175,77.6774,90.2346,269.8799,0.00023323,3.427e-05,0.0,0 STARLINK-4266,1 52869U 22062AR  23027.82943669  .00003427  00000-0  23323-3 0  9995,2 52869  53.2175  77.6774 0001328  90.2346 269.8799 15.08848407 34430,6917.855,95.437,540.638,538.8009999999999,0.0
52869.0,STARLINK-4266,PAYLOAD,2023-01-28 03:51:19,15.0884113,0.0001949,53.22,76.1957,108.6508,251.4696,0.00010251,1.344e-05,0.0,0 STARLINK-4266,1 52869U 22062AR  23028.16064036  .00001344  00000-0  10251-3 0  9997,2 52869  53.2200  76.1957 0001949 108.6508 251.4696 15.08841130 34977,6917.877,95.437,541.09,538.394,0.0
52869.0,STARLINK-4266,PAYLOAD,2023-01-28 13:23:38,15.0883979,0.0001332,53.2182,74.4061,96.2933,263.8211,6.0844e-05,6.81e-06,0.0,0 STARLINK-4266,1 52869U 22062AR  23028.55808020  .00000681  00000-0  60844-4 0  9996,2 52869  53.2182  74.4061 0001332  96.2933 263.8211 15.08839790 34545,6917.881,95.438,540.667,538.825,0.0
52869.0,STARLINK-4266,PAYLOAD,2023-01-28 19:45:10,15.08838851,0.0001401,53.2184,73.2145,77.653,282.4618,1.6465e-05,-2.6e-07,0.0,0 STARLINK-4266,1 52869U 22062AR  23028.82304159 -.00000026  00000-0  16465-4 0  9994,2 52869  53.2184  73.2145 0001401  77.6530 282.4618 15.08838851 35074,6917.884,95.438,540.718,538.78,0.0
52869.0,STARLINK-4266,PAYLOAD,2023-01-29 19:35:57,15.08842098,0.0001308,53.2171,68.7555,87.2765,272.8376,0.00024981,3.69e-05,0.0,0 STARLINK-4266,1 52869U 22062AR  23029.81664159  .00003690  00000-0  24981-3 0  9993,2 52869  53.2171  68.7555 0001308  87.2765 272.8376 15.08842098 34731,6917.874,95.437,540.644,538.834,0.0
52869.0,STARLINK-4266,PAYLOAD,2023-01-30 06:43:39,15.08839829,0.0001392,53.2181,66.674,86.4526,273.6626,0.0001666,2.364e-05,0.0,0 STARLINK-4266,1 52869U 22062AR  23030.28032375  .00002364  00000-0  16660-3 0  9997,2 52869  53.2181  66.6740 0001392  86.4526 273.6626 15.08839829 35291,6917.881,95.438,540.709,538.783,0.0
52869.0,STARLINK-4266,PAYLOAD,2023-01-30 11:29:49,15.08841683,0.0001276,53.2175,65.7815,85.5,274.6138,0.00012382,1.683e-05,0.0,0 STARLINK-4266,1 52869U 22062AR  23030.47904230  .00001683  00000-0  12382-3 0  9996,2 52869  53.2175  65.7815 0001276  85.5000 274.6138 15.08841683 34834,6917.875,95.437,540.623,538.858,0.0
52869.0,STARLINK-4266,PAYLOAD,2023-01-30 19:26:45,15.08837774,0.0001294,53.2177,64.2945,89.4121,270.7019,3.8775e-05,3.29e-06,0.0,0 STARLINK-4266,1 52869U 22062AR  23030.81024542  .00000329  00000-0  38775-4 0  9994,2 52869  53.2177  64.2945 0001294  89.4121 270.7019 15.08837774 34887,6917.887,95.438,540.647,538.857,0.0
52869.0,STARLINK-4266,PAYLOAD,2023-01-31 09:45:13,15.08842102,0.0001265,53.2178,61.6188,84.8851,275.2285,7.9494e-05,9.78e-06,0.0,0 STARLINK-4266,1 52869U 22062AR  23031.40640477  .00000978  00000-0  79494-4 0  9994,2 52869  53.2178  61.6188 0001265  84.8851 275.2285 15.08842102 35466,6917.874,95.437,540.614,538.864,0.0
52869.0,STARLINK-4266,PAYLOAD,2023-01-31 19:17:32,15.08844646,0.000125,53.2179,59.8347,88.258,271.8555,0.00011683,1.572e-05,0.0,0 STARLINK-4266,1 52869U 22062AR  23031.80384348  .00001572  00000-0  11683-3 0  9996,2 52869  53.2179  59.8347 0001250  88.2580 271.8555 15.08844646 35034,6917.866,95.437,540.596,538.866,0.0
52869.0,STARLINK-4266,PAYLOAD,2023-02-01 08:00:36,15.08850155,0.0001305,53.2178,57.4562,82.9008,277.2132,0.00022599,3.312e-05,0.0,0 STARLINK-4266,1 52869U 22062AR  23032.33376082  .00003312  00000-0  22599-3 0  9993,2 52869  53.2178  57.4562 0001305  82.9008 277.2132 15.08850155 35115,6917.849,95.437,540.617,538.812,0.0
52869.0,STARLINK-4266,PAYLOAD,2023-02-01 19:08:18,15.08846501,0.0001295,53.2178,55.3752,82.1941,277.9198,0.00016144,2.283e-05,0.0,0 STARLINK-4266,1 52869U 22062AR  23032.79744168  .00002283  00000-0  16144-3 0  9992,2 52869  53.2178  55.3752 0001295  82.1941 277.9198 15.08846501 35679,6917.861,95.437,540.621,538.83,0.0
52869.0,STARLINK-4266,PAYLOAD,2023-02-02 01:29:51,15.08835423,0.0001231,53.2178,54.1848,100.2523,259.8608,1.8979e-05,1.4e-07,0.0,0 STARLINK-4266,1 52869U 22062AR  23033.06240648  .00000014  00000-0  18979-4 0  9996,2 52869  53.2178  54.1848 0001231 100.2523 259.8608 15.08835423 35711,6917.894,95.438,540.611,538.908,0.0
52869.0,STARLINK-4266,PAYLOAD,2023-02-02 07:51:24,15.08840266,0.0001208,53.2182,52.9947,103.3483,256.7644,4.8332e-05,4.81e-06,0.0,0 STARLINK-4266,1 52869U 22062AR  23033.32736432  .00000481  00000-0  48332-4 0  9990,2 52869  53.2182  52.9947 0001208 103.3483 256.7644 15.08840266 35262,6917.88,95.438,540.58,538.909,0.0
52869.0,STARLINK-4266,PAYLOAD,2023-02-03 04:31:25,15.08840153,0.0001263,53.2183,49.1291,106.7304,253.3827,-1.204e-05,-4.79e-06,0.0,0 STARLINK-4266,1 52869U 22062AR  23034.18848586 -.00000479  00000-0 -12040-4 0  9995,2 52869  53.2183  49.1291 0001263 106.7304 253.3827 15.08840153 35882,6917.88,95.438,540.619,538.871,0.0
52869.0,STARLINK-4266,PAYLOAD,2023-02-03 07:42:11,15.08845275,0.0001158,53.2183,48.5347,99.6953,260.417,2.8217e-06,-2.43e-06,0.0,0 STARLINK-4266,1 52869U 22062AR  23034.32096211 -.00000243  00000-0  28217-5 0  9993,2 52869  53.2183  48.5347 0001158  99.6953 260.4170 15.08845275 35419,6917.864,95.437,540.53,538.928,0.0
52869.0,STARLINK-4266,PAYLOAD,2023-02-04 07:32:58,15.08840329,0.0001218,53.2184,44.0741,108.2964,251.8161,0.0002316,3.4e-05,0.0,0 STARLINK-4266,1 52869U 22062AR  23035.31456116  .00003400  00000-0  23160-3 0  9994,2 52869  53.2184  44.0741 0001218 108.2964 251.8161 15.08840329 36055,6917.879,95.438,540.587,538.902,0.0
52869.0,STARLINK-4266,PAYLOAD,2023-02-05 04:12:59,15.08832151,0.0001164,53.2187,40.2088,112.0009,248.1107,5.5243e-05,5.91e-06,0.0,0 STARLINK-4266,1 52869U 22062AR  23036.17569227  .00000591  00000-0  55243-4 0  9993,2 52869  53.2187  40.2088 0001164 112.0009 248.1107 15.08832151 36180,6917.904,95.438,540.575,538.964,0.0
52869.0,STARLINK-4266,PAYLOAD,2023-02-05 10:34:32,15.08835316,0.000119,53.2186,39.0193,114.4572,245.6545,5.5545e-05,5.96e-06,0.0,0 STARLINK-4266,1 52869U 22062AR  23036.44065082  .00000596  00000-0  55545-4 0  9993,2 52869  53.2186  39.0193 0001190 114.4572 245.6545 15.08835316 35736,6917.895,95.438,540.583,538.936,0.0
52869.0,STARLINK-4266,PAYLOAD,2023-02-06 05:39:09,15.08845829,0.0001176,53.2188,35.4506,118.179,241.9321,0.00012478,1.699e-05,0.0,0 STARLINK-4266,1 52869U 22062AR  23037.23552461  .00001699  00000-0  12478-3 0  9995,2 52869  53.2188  35.4506 0001176 118.1790 241.9321 15.08845829 36342,6917.863,95.437,540.541,538.914,0.0
52869.0,STARLINK-4266,PAYLOAD,2023-02-06 07:14:32,15.08848409,0.0001141,53.219,35.1532,115.4048,244.7062,0.00014471,2.016e-05,0.0,0 STARLINK-4266,1 52869U 22062AR  23037.30176286  .00002016  00000-0  14471-3 0  9999,2 52869  53.2190  35.1532 0001141 115.4048 244.7062 15.08848409 35865,6917.855,95.437,540.509,538.93,0.0
52869.0,STARLINK-4266,PAYLOAD,2023-02-06 18:22:14,15.08846698,0.0001071,53.2188,33.0718,112.8122,247.2983,0.00017658,2.524e-05,0.0,0 STARLINK-4266,1 52869U 22062AR  23037.76544260  .00002524  00000-0  17658-3 0  9994,2 52869  53.2188  33.0718 0001071 112.8122 247.2983 15.08846698 35937,6917.86,95.437,540.466,538.984,0.0
52869.0,STARLINK-4266,PAYLOAD,2023-02-07 05:29:56,15.08847256,0.0001003,53.2179,30.9902,96.7704,263.3402,0.00022384,3.277e-05,0.0,0 STARLINK-4266,1 52869U 22062AR  23038.22912369  .00003277  00000-0  22384-3 0  9993,2 52869  53.2179  30.9902 0001003  96.7704 263.3402 15.08847256 36004,6917.858,95.437,540.417,539.029,0.0
52869.0,STARLINK-4266,PAYLOAD,2023-02-08 05:20:42,15.08851289,0.0001137,53.2189,26.5298,104.1655,255.9464,0.00014458,2.015e-05,0.0,0 STARLINK-4266,1 52869U 22062AR  23039.22271988  .00002015  00000-0  14458-3 0  9991,2 52869  53.2189  26.5298 0001137 104.1655 255.9464 15.08851289 36647,6917.846,95.437,540.497,538.924,0.0
